ORBCOMM FM115           
1 41186U 15081H   25013.56267953  .00001269  00000+0  28559-3 0  9998
2 41186  46.9995  54.6794 0000846 320.6042  39.4784 14.61944962485147
ORBCOMM FM108           
1 41187U 15081J   25013.63556332  .00001562  00000+0  37610-3 0  9993
2 41187  47.0046 116.6041 0003285 299.0573  60.9983 14.57646880484242
ORBCOMM FM117           
1 41188U 15081K   25013.67067442  .00001555  00000+0  37402-3 0  9998
2 41188  47.0009 115.2559 0003365 304.1426  55.9140 14.57722193484291
ORBCOMM FM116           
1 41189U 15081L   25013.93513997  .00000662  00000+0  18056-3 0  9991
2 41189  47.0004 203.8592 0001042  73.4201 286.6799 14.57647157483147
